{"type": "FeatureCollection", "features": [ {"type": "Feature", "properties": {"norad_id": 38755, "name": "SPOT 6", "group": "resource", "lat": -57.59653196124746, "lon": 55.95516072937751, "alt_km": 705.5011832596265, "timestamp": "2025-12-03T22:42:32.313635+00:00", "meta": {"OBJECT_NAME": "SPOT 6", "OBJECT_ID": "2012-047A", "EPOCH": "2025-12-03T11:27:07.631424", "MEAN_MOTION": 14.58588774, "ECCENTRICITY": 0.0001043, "INCLINATION": 98.1585, "RA_OF_ASC_NODE": 42.4317, "ARG_OF_PERICENTER": 100.1301, "MEAN_ANOMALY": 260.0016, "EPHEMERIS_TYPE": 0, "CLASSIFICATION_TYPE": "U", "NORAD_CAT_ID": 38755, "ELEMENT_SET_NO": 999, "REV_AT_EPOCH": 70452, "BSTAR": 0.00014969, "MEAN_MOTION_DOT": 6.51e-06, "MEAN_MOTION_DDOT": 0}, "tle": {"line1": "1 38755U 12047A   25337.47717166  .00000651  00000+0  14969-3 0  9994", "line2": "2 38755  98.1585  42.4317 0001043 100.1301 260.0016 14.58588774704521"}}, "geometry": {"type": "Point", "coordinates": [55.95516072937751, -57.59653196124746]}}, {"type": "Feature", "properties": {"norad_id": 39019, "name": "PLEIADES 1B", "group": "resource", "lat": -21.575445151224653, "lon": -132.5245583324257, "alt_km": 703.595195451273, "timestamp": "2025-12-03T22:42:32.313644+00:00", "meta": {"OBJECT_NAME": "PLEIADES 1B", "OBJECT_ID": "2012-068A", "EPOCH": "2025-12-03T11:54:30.428928", "MEAN_MOTION": 14.58538011, "ECCENTRICITY": 0.0001254, "INCLINATION": 98.1807, "RA_OF_ASC_NODE": 50.2935, "ARG_OF_PERICENTER": 87.4904, "MEAN_ANOMALY": 272.6439, "EPHEMERIS_TYPE": 0, "CLASSIFICATION_TYPE": "U", "NORAD_CAT_ID": 39019, "ELEMENT_SET_NO": 999, "REV_AT_EPOCH": 69232, "BSTAR": 0.00015103, "MEAN_MOTION_DOT": 6.56e-06, "MEAN_MOTION_DDOT": 0}, "tle": {"line1": "1 39019U 12068A   25337.49618552  .00000656  00000+0  15103-3 0  9998", "line2": "2 39019  98.1807  50.2935 0001254  87.4904 272.6439 14.58538011692326"}}, "geometry": {"type": "Point", "coordinates": [-132.5245583324257, -21.575445151224653]}}, {"type": "Feature", "properties": {"norad_id": 39030, "name": "GOKTURK 2", "group": "resource", "lat": -67.12610927105773, "lon": -18.647603294405428, "alt_km": 652.0561597646856, "timestamp": "2025-12-03T22:42:32.313653+00:00", "meta": {"OBJECT_NAME": "GOKTURK 2", "OBJECT_ID": "2012-073A", "EPOCH": "2025-12-03T13:26:51.287712", "MEAN_MOTION": 14.75270332, "ECCENTRICITY": 8.01e-05, "INCLINATION": 97.6899, "RA_OF_ASC_NODE": 179.665, "ARG_OF_PERICENTER": 95.5639, "MEAN_ANOMALY": 264.5662, "EPHEMERIS_TYPE": 0, "CLASSIFICATION_TYPE": "U", "NORAD_CAT_ID": 39030, "ELEMENT_SET_NO": 999, "REV_AT_EPOCH": 69566, "BSTAR": 0.00015685, "MEAN_MOTION_DOT": 1.014e-05, "MEAN_MOTION_DDOT": 0}, "tle": {"line1": "1 39030U 12073A   25337.56031583  .00001014  00000+0  15685-3 0  9992", "line2": "2 39030  97.6899 179.6650 0000801  95.5639 264.5662 14.75270332695662"}}, "geometry": {"type": "Point", "coordinates": [-18.647603294405428, -67.12610927105773]}}, {"type": "Feature", "properties": {"norad_id": 39084, "name": "LANDSAT 8", "group": "resource", "lat": 56.22356101938174, "lon": 33.6857120186443, "alt_km": 696.432681183157, "timestamp": "2025-12-03T22:42:32.313662+00:00", "meta": {"OBJECT_NAME": "LANDSAT 8", "OBJECT_ID": "2013-008A", "EPOCH": "2025-12-03T10:54:41.068800", "MEAN_MOTION": 14.57125296, "ECCENTRICITY": 0.0001066, "INCLINATION": 98.2084, "RA_OF_ASC_NODE": 45.6647, "ARG_OF_PERICENTER": 88.7475, "MEAN_ANOMALY": 271.3845, "EPHEMERIS_TYPE": 0, "CLASSIFICATION_TYPE": "U", "NORAD_CAT_ID": 39084, "ELEMENT_SET_NO": 999, "REV_AT_EPOCH": 66939, "BSTAR": 0.00016061, "MEAN_MOTION_DOT": 6.79e-06, "MEAN_MOTION_DDOT": 0}, "tle": {"line1": "1 39084U 13008A   25337.45464200  .00000679  00000+0  16061-3 0  9999", "line2": "2 39084  98.2084  45.6647 0001066  88.7475 271.3845 14.57125296669396"}}, "geometry": {"type": "Point", "coordinates": [33.6857120186443, 56.22356101938174]}}, {"type": "Feature", "properties": {"norad_id": 39086, "name": "SARAL", "group": "resource", "lat": 81.09371540966448, "lon": 55.745274091724205, "alt_km": 773.5109797851883, "timestamp": "2025-12-03T22:42:32.313671+00:00", "meta": {"OBJECT_NAME": "SARAL", "OBJECT_ID": "2013-009A", "EPOCH": "2025-12-03T12:13:21.592416", "MEAN_MOTION": 14.32751786, "ECCENTRICITY": 0.0002626, "INCLINATION": 98.5506, "RA_OF_ASC_NODE": 161.56, "ARG_OF_PERICENTER": 126.3735, "MEAN_ANOMALY": 233.7691, "EPHEMERIS_TYPE": 0, "CLASSIFICATION_TYPE": "U", "NORAD_CAT_ID": 39086, "ELEMENT_SET_NO": 999, "REV_AT_EPOCH": 66758, "BSTAR": 9.9233e-05, "MEAN_MOTION_DOT": 2.27e-06, "MEAN_MOTION_DDOT": 0}, "tle": {"line1": "1 39086U 13009A   25337.50927769  .00000227  00000+0  99233-4 0  9994", "line2": "2 39086  98.5506 161.5600 0002626 126.3735 233.7691 14.32751786667580"}}, "geometry": {"type": "Point", "coordinates": [55.745274091724205, 81.09371540966448]}}, {"type": "Feature", "properties": {"norad_id": 39150, "name": "GAOFEN-1", "group": "resource", "lat": -71.17737853122058, "lon": 72.91043044119411, "alt_km": 653.1861467610497, "timestamp": "2025-12-03T22:42:32.313681+00:00", "meta": {"OBJECT_NAME": "GAOFEN-1", "OBJECT_ID": "2013-018A", "EPOCH": "2025-12-03T11:39:15.988608", "MEAN_MOTION": 14.76506897, "ECCENTRICITY": 0.0017651, "INCLINATION": 97.9339, "RA_OF_ASC_NODE": 48.308, "ARG_OF_PERICENTER": 172.0771, "MEAN_ANOMALY": 188.0721, "EPHEMERIS_TYPE": 0, "CLASSIFICATION_TYPE": "U", "NORAD_CAT_ID": 39150, "ELEMENT_SET_NO": 999, "REV_AT_EPOCH": 67936, "BSTAR": 0.00018967, "MEAN_MOTION_DOT": 1.273e-05, "MEAN_MOTION_DDOT": 0}, "tle": {"line1": "1 39150U 13018A   25337.48560172  .00001273  00000+0  18967-3 0  9990", "line2": "2 39150  97.9339  48.3080 0017651 172.0771 188.0721 14.76506897679369"}}, "geometry": {"type": "Point", "coordinates": [72.91043044119411, -71.17737853122058]}}, {"type": "Feature", "properties": {"norad_id": 39160, "name": "VNREDSAT 1", "group": "resource", "lat": -3.6280546755830474, "lon": 34.035905030302615, "alt_km": 680.7861962529942, "timestamp": "2025-12-03T22:42:32.313690+00:00", "meta": {"OBJECT_NAME": "VNREDSAT 1", "OBJECT_ID": "2013-021B", "EPOCH": "2025-12-03T11:15:01.480032", "MEAN_MOTION": 14.64899758, "ECCENTRICITY": 0.0001365, "INCLINATION": 97.9387, "RA_OF_ASC_NODE": 33.0682, "ARG_OF_PERICENTER": 83.915, "MEAN_ANOMALY": 276.2209, "EPHEMERIS_TYPE": 0, "CLASSIFICATION_TYPE": "U", "NORAD_CAT_ID": 39160, "ELEMENT_SET_NO": 999, "REV_AT_EPOCH": 67163, "BSTAR": 0.00021429, "MEAN_MOTION_DOT": 1.1e-05, "MEAN_MOTION_DDOT": 0}, "tle": {"line1": "1 39160U 13021B   25337.46876713  .00001100  00000+0  21429-3 0  9990", "line2": "2 39160  97.9387  33.0682 0001365  83.9150 276.2209 14.64899758671639"}}, "geometry": {"type": "Point", "coordinates": [34.035905030302615, -3.6280546755830474]}}, {"type": "Feature", "properties": {"norad_id": 39227, "name": "ARIRANG-5 (KOMPSAT-5)", "group": "resource", "lat": -79.96043977460039, "lon": -66.7155900702333, "alt_km": 563.3411518737057, "timestamp": "2025-12-03T22:42:32.313699+00:00", "meta": {"OBJECT_NAME": "ARIRANG-5 (KOMPSAT-5)", "OBJECT_ID": "2013-042A", "EPOCH": "2025-12-03T11:57:51.957792", "MEAN_MOTION": 15.04502974, "ECCENTRICITY": 0.0004274, "INCLINATION": 97.6156, "RA_OF_ASC_NODE": 161.9344, "ARG_OF_PERICENTER": 81.698, "MEAN_ANOMALY": 278.473, "EPHEMERIS_TYPE": 0, "CLASSIFICATION_TYPE": "U", "NORAD_CAT_ID": 39227, "ELEMENT_SET_NO": 999, "REV_AT_EPOCH": 67443, "BSTAR": 0.00018195, "MEAN_MOTION_DOT": 2.487e-05, "MEAN_MOTION_DDOT": 0}, "tle": {"line1": "1 39227U 13042A   25337.49851803  .00002487  00000+0  18195-3 0  9998", "line2": "2 39227  97.6156 161.9344 0004274  81.6980 278.4730 15.04502974674438"}}, "geometry": {"type": "Point", "coordinates": [-66.7155900702333, -79.96043977460039]}}, {"type": "Feature", "properties": {"norad_id": 39418, "name": "SKYSAT-A", "group": "resource", "lat": 53.3700686075773, "lon": 18.337121244600226, "alt_km": 538.1878493357744, "timestamp": "2025-12-03T22:42:32.313708+00:00", "meta": {"OBJECT_NAME": "SKYSAT-A", "OBJECT_ID": "2013-066C", "EPOCH": "2025-12-03T03:24:15.349248", "MEAN_MOTION": 15.11489448, "ECCENTRICITY": 0.00204425, "INCLINATION": 97.4128, "RA_OF_ASC_NODE": 27.6425, "ARG_OF_PERICENTER": 272.095, "MEAN_ANOMALY": 87.794, "EPHEMERIS_TYPE": 0, "CLASSIFICATION_TYPE": "U", "NORAD_CAT_ID": 39418, "ELEMENT_SET_NO": 999, "REV_AT_EPOCH": 65885, "BSTAR": 0.00030269913, "MEAN_MOTION_DOT": 5.085e-05, "MEAN_MOTION_DDOT": 0}, "tle": {"line1": "1 39418U 13066C   25337.14184432  .00005085  00000+0  30270-3 0  9990", "line2": "2 39418  97.4128  27.6425 0020442 272.0950  87.7940 15.11489448658853"}}, "geometry": {"type": "Point", "coordinates": [18.337121244600226, 53.3700686075773]}}, {"type": "Feature", "properties": {"norad_id": 39419, "name": "DUBAISAT-2", "group": "resource", "lat": -60.18421442206022, "lon": -18.18519094726839, "alt_km": 544.270204755373, "timestamp": "2025-12-03T22:42:32.313717+00:00", "meta": {"OBJECT_NAME": "DUBAISAT-2", "OBJECT_ID": "2013-066D", "EPOCH": "2025-12-03T13:25:29.912736", "MEAN_MOTION": 15.08212932, "ECCENTRICITY": 0.0011466, "INCLINATION": 97.444, "RA_OF_ASC_NODE": 328.2516, "ARG_OF_PERICENTER": 355.4169, "MEAN_ANOMALY": 4.6952, "EPHEMERIS_TYPE": 0, "CLASSIFICATION_TYPE": "U", "NORAD_CAT_ID": 39419, "ELEMENT_SET_NO": 999, "REV_AT_EPOCH": 65688, "BSTAR": 0.00042365, "MEAN_MOTION_DOT": 6.505e-05, "MEAN_MOTION_DDOT": 0}, "tle": {"line1": "1 39419U 13066D   25337.55937399  .00006505  00000+0  42365-3 0  9990", "line2": "2 39419  97.4440 328.2516 0011466 355.4169   4.6952 15.08212932656886"}}, "geometry": {"type": "Point", "coordinates": [-18.18519094726839, -60.18421442206022]}}]}